[{"OBJECT_NAME":"STARLINK-30508","OBJECT_ID":"2023-151R","EPOCH":"2026-03-09T22:00:01.999584","MEAN_MOTION":15.26754835,"ECCENTRICITY":0.00018952,"INCLINATION":42.9999,"RA_OF_ASC_NODE":349.4045,"ARG_OF_PERICENTER":269.8199,"MEAN_ANOMALY":246.9133,"EPHEMERIS_TYPE":0,"CLASSIFICATION_TYPE":"U","NORAD_CAT_ID":57979,"ELEMENT_SET_NO":999,"REV_AT_EPOCH":577,"BSTAR":-0.00031514839,"MEAN_MOTION_DOT":-8.707e-5,"MEAN_MOTION_DDOT":0},{"OBJECT_NAME":"FLOCK 4G-12","OBJECT_ID":"2025-009S","EPOCH":"2026-03-09T17:16:21.445824","MEAN_MOTION":15.27059194,"ECCENTRICITY":0.00028933,"INCLINATION":97.4059,"RA_OF_ASC_NODE":151.1894,"ARG_OF_PERICENTER":310.1775,"MEAN_ANOMALY":49.9211,"EPHEMERIS_TYPE":0,"CLASSIFICATION_TYPE":"U","NORAD_CAT_ID":62625,"ELEMENT_SET_NO":999,"REV_AT_EPOCH":6371,"BSTAR":0.00043519262,"MEAN_MOTION_DOT":0.00011487,"MEAN_MOTION_DDOT":0}]
